$$SOE
2460721.500000000, A.D. 2025-Feb-15 00:00:00.0000, -4.379888448676287E+07, -4.964280487890094E+08, -2.703335533520103E+06,
2460728.500000000, A.D. 2025-Feb-22 00:00:00.0000, -3.446884442122281E+07, -4.984659669808278E+08, -2.867379398163915E+06,
2460735.500000000, A.D. 2025-Mar-01 00:00:00.0000, -2.512538419041779E+07, -5.003099776423324E+08, -3.030307357221931E+06,
2460742.500000000, A.D. 2025-Mar-08 00:00:00.0000, -1.577221177055683E+07, -5.019608571878785E+08, -3.192065374709904E+06,
2460749.500000000, A.D. 2025-Mar-15 00:00:00.0000, -6.412980921857780E+06, -5.034194316203258E+08, -3.352600617457896E+06,
2460756.500000000, A.D. 2025-Mar-22 00:00:00.0000, 2.948706167804040E+06, -5.046865741025716E+08, -3.511861190721303E+06,
2460763.500000000, A.D. 2025-Mar-29 00:00:00.0000, 1.230929756936767E+07, -5.057632048593295E+08, -3.669796182530254E+06,
2460770.500000000, A.D. 2025-Apr-05 00:00:00.0000, 2.166529195847593E+07, -5.066502902701882E+08, -3.826355790469021E+06,
2460777.500000000, A.D. 2025-Apr-12 00:00:00.0000, 3.101323869822724E+07, -5.073488410489597E+08, -3.981491346032530E+06,
2460784.500000000, A.D. 2025-Apr-19 00:00:00.0000, 4.034973747475121E+07, -5.078599103890904E+08, -4.135155291718572E+06,
2460791.500000000, A.D. 2025-Apr-26 00:00:00.0000, 4.967143776022276E+07, -5.081845922763716E+08, -4.287301152648151E+06,
2460798.500000000, A.D. 2025-May-03 00:00:00.0000, 5.897503821970199E+07, -5.083240199477822E+08, -4.437883511830777E+06,
2460805.500000000, A.D. 2025-May-10 00:00:00.0000, 6.825728609291261E+07, -5.082793644856343E+08, -4.586857991209358E+06,
2460812.500000000, A.D. 2025-May-17 00:00:00.0000, 7.751497659006143E+07, -5.080518335858090E+08, -4.734181245373487E+06,
2460819.500000000, A.D. 2025-May-24 00:00:00.0000, 8.674495247781852E+07, -5.076426705522430E+08, -4.879810988440216E+06,
2460826.500000000, A.D. 2025-May-31 00:00:00.0000, 9.594410427536716E+07, -5.070531532042998E+08, -5.023706067058235E+06,
2460833.500000000, A.D. 2025-Jun-07 00:00:00.0000, 1.051093706617789E+08, -5.062845914898422E+08, -5.165826444343716E+06,
2460840.500000000, A.D. 2025-Jun-14 00:00:00.0000, 1.142377367324247E+08, -5.053383244683833E+08, -5.306132932436973E+06,
2460847.500000000, A.D. 2025-Jun-21 00:00:00.0000, 1.233262313237351E+08, -5.042157199333686E+08, -5.444587052734196E+06,
2460854.500000000, A.D. 2025-Jun-28 00:00:00.0000, 1.323719265370486E+08, -5.029181749078521E+08, -5.581151166540086E+06,
2460861.500000000, A.D. 2025-Jul-05 00:00:00.0000, 1.413719379465108E+08, -5.014471148566975E+08, -5.715788560713530E+06,
2460868.500000000, A.D. 2025-Jul-12 00:00:00.0000, 1.503234243010126E+08, -4.998039924195098E+08, -5.848463444757611E+06,
2460875.500000000, A.D. 2025-Jul-19 00:00:00.0000, 1.592235869106757E+08, -4.979902862375260E+08, -5.979140923622638E+06,
2460882.500000000, A.D. 2025-Jul-26 00:00:00.0000, 1.680696689289086E+08, -4.960074999289303E+08, -6.107786969992608E+06,
2460889.500000000, A.D. 2025-Aug-02 00:00:00.0000, 1.768589545966317E+08, -4.938571611887985E+08, -6.234368400185347E+06,
2460896.500000000, A.D. 2025-Aug-09 00:00:00.0000, 1.855887684734308E+08, -4.915408210261968E+08, -6.358852856908530E+06,
2460903.500000000, A.D. 2025-Aug-16 00:00:00.0000, 1.942564747340663E+08, -4.890600531997995E+08, -6.481208810974509E+06,
2460910.500000000, A.D. 2025-Aug-23 00:00:00.0000, 2.028594768244476E+08, -4.864164538342135E+08, -6.601405607276201E+06,
2460917.500000000, A.D. 2025-Aug-30 00:00:00.0000, 2.113952178071768E+08, -4.836116405021574E+08, -6.719413526587427E+06,
2460924.500000000, A.D. 2025-Sep-06 00:00:00.0000, 2.198611799790852E+08, -4.806472497714216E+08, -6.835203651082963E+06,
2460931.500000000, A.D. 2025-Sep-13 00:00:00.0000, 2.282548820900877E+08, -4.775249356977841E+08, -6.948747583007246E+06,
2460938.500000000, A.D. 2025-Sep-20 00:00:00.0000, 2.365738774371019E+08, -4.742463709059969E+08, -7.060017450921386E+06,
2460945.500000000, A.D. 2025-Sep-27 00:00:00.0000, 2.448157538926691E+08, -4.708132471457701E+08, -7.168986046136558E+06,
2460952.500000000, A.D. 2025-Oct-04 00:00:00.0000, 2.529781338524359E+08, -4.672272747825752E+08, -7.275626860100091E+06,
2460959.500000000, A.D. 2025-Oct-11 00:00:00.0000, 2.610586737283920E+08, -4.634901821651075E+08, -7.379914065396696E+06,
2460966.500000000, A.D. 2025-Oct-18 00:00:00.0000, 2.690550632720009E+08, -4.596037151424770E+08, -7.481822488762110E+06,
2460973.500000000, A.D. 2025-Oct-25 00:00:00.0000, 2.769650248671635E+08, -4.555696367186917E+08, -7.581327588036567E+06,
2460980.500000000, A.D. 2025-Nov-01 00:00:00.0000, 2.847863128327340E+08, -4.513897268274032E+08, -7.678405435518742E+06,
2460987.500000000, A.D. 2025-Nov-08 00:00:00.0000, 2.925167127693977E+08, -4.470657822565830E+08, -7.773032713638842E+06,
2460994.500000000, A.D. 2025-Nov-15 00:00:00.0000, 3.001540410992469E+08, -4.425996167798891E+08, -7.865186741523355E+06,
2461001.500000000, A.D. 2025-Nov-22 00:00:00.0000, 3.076961452015472E+08, -4.379930612732119E+08, -7.954845551611334E+06,
2461008.500000000, A.D. 2025-Nov-29 00:00:00.0000, 3.151409039923196E+08, -4.332479626806796E+08, -8.041987909683287E+06,
2461015.500000000, A.D. 2025-Dec-06 00:00:00.0000, 3.224862266705294E+08, -4.283661819655628E+08, -8.126593080685675E+06,
2461022.500000000, A.D. 2025-Dec-13 00:00:00.0000, 3.297300500642353E+08, -4.233495944149575E+08, -8.208640655756742E+06,
2461029.500000000, A.D. 2025-Dec-20 00:00:00.0000, 3.368703380701634E+08, -4.182000912732599E+08, -8.288110677400768E+06,
2461036.500000000, A.D. 2025-Dec-27 00:00:00.0000, 3.439050821137572E+08, -4.129195801121123E+08, -8.364983752612561E+06,
2461043.500000000, A.D. 2026-Jan-03 00:00:00.0000, 3.508323011710514E+08, -4.075099845516822E+08, -8.439241070401222E+06,
2461050.500000000, A.D. 2026-Jan-10 00:00:00.0000, 3.576500414622742E+08, -4.019732440112147E+08, -8.510864389198899E+06,
2461057.500000000, A.D. 2026-Jan-17 00:00:00.0000, 3.643563760495634E+08, -3.963113135791377E+08, -8.579836022881210E+06,
2461064.500000000, A.D. 2026-Jan-24 00:00:00.0000, 3.709494044162846E+08, -3.905261639784055E+08, -8.646138830591112E+06,
2461071.500000000, A.D. 2026-Jan-31 00:00:00.0000, 3.774272520508165E+08, -3.846197816323549E+08, -8.709756213040143E+06,
2461078.500000000, A.D. 2026-Feb-07 00:00:00.0000, 3.837880700959886E+08, -3.785941688858381E+08, -8.770672125557810E+06,
2461085.500000000, A.D. 2026-Feb-14 00:00:00.0000, 3.900300353176613E+08, -3.724513443943090E+08, -8.828871132306278E+06,
2461092.500000000, A.D. 2026-Feb-21 00:00:00.0000, 3.961513507814301E+08, -3.661933431020684E+08, -8.884338489953578E+06,
2461099.500000000, A.D. 2026-Feb-28 00:00:00.0000, 4.021502461543187E+08, -3.598222146559572E+08, -8.937060066887081E+06,
2461106.500000000, A.D. 2026-Mar-07 00:00:00.0000, 4.080249755735343E+08, -3.533400222049658E+08, -8.987022068394825E+06,
2461113.500000000, A.D. 2026-Mar-14 00:00:00.0000, 4.137738158575407E+08, -3.467488439180929E+08, -9.034211012982130E+06,
2461120.500000000, A.D. 2026-Mar-21 00:00:00.0000, 4.193950668423058E+08, -3.400507743216196E+08, -9.078613886430085E+06,
2461127.500000000, A.D. 2026-Mar-28 00:00:00.0000, 4.248870518337418E+08, -3.332479244267507E+08, -9.120218205082983E+06,
2461134.500000000, A.D. 2026-Apr-04 00:00:00.0000, 4.302481175728583E+08, -3.263424216129760E+08, -9.159012011734247E+06,
2461141.500000000, A.D. 2026-Apr-11 00:00:00.0000, 4.354766339877147E+08, -3.193364096266493E+08, -9.194983858462885E+06,
2461148.500000000, A.D. 2026-Apr-18 00:00:00.0000, 4.405709938917661E+08, -3.122320487009876E+08, -9.228122791377768E+06,
2461155.500000000, A.D. 2026-Apr-25 00:00:00.0000, 4.455296126748979E+08, -3.050315157823504E+08, -9.258418340071440E+06,
2461162.500000000, A.D. 2026-May-02 00:00:00.0000, 4.503509280183022E+08, -2.977370048920065E+08, -9.285860516841367E+06,
2461169.500000000, A.D. 2026-May-09 00:00:00.0000, 4.550333997581280E+08, -2.903507276890244E+08, -9.310439842385411E+06,
2461176.500000000, A.D. 2026-May-16 00:00:00.0000, 4.595755102763002E+08, -2.828749140950260E+08, -9.332147421233460E+06,
2461183.500000000, A.D. 2026-May-23 00:00:00.0000, 4.639757654714308E+08, -2.753118119576330E+08, -9.350974988022313E+06,
2461190.500000000, A.D. 2026-May-30 00:00:00.0000, 4.682326942327860E+08, -2.676636854331609E+08, -9.366914707797825E+06,
2461197.500000000, A.D. 2026-Jun-06 00:00:00.0000, 4.723448461003054E+08, -2.599328153624169E+08, -9.379958968850628E+06,
2461204.500000000, A.D. 2026-Jun-13 00:00:00.0000, 4.763107907761653E+08, -2.521215014398642E+08, -9.390100488262743E+06,
2461211.500000000, A.D. 2026-Jun-20 00:00:00.0000, 4.801291189872140E+08, -2.442320632490374E+08, -9.397332445296079E+06,
2461218.500000000, A.D. 2026-Jun-27 00:00:00.0000, 4.837984430007581E+08, -2.362668405036362E+08, -9.401648514856800E+06,
2461225.500000000, A.D. 2026-Jul-04 00:00:00.0000, 4.873173967942735E+08, -2.282281932688873E+08, -9.403042864621922E+06,
2461232.500000000, A.D. 2026-Jul-11 00:00:00.0000, 4.906846361335628E+08, -2.201185022947015E+08, -9.401510150176689E+06,
2461239.500000000, A.D. 2026-Jul-18 00:00:00.0000, 4.938988386526988E+08, -2.119401694344908E+08, -9.397045514831334E+06,
2461246.500000000, A.D. 2026-Jul-25 00:00:00.0000, 4.969587039608502E+08, -2.036956181465738E+08, -9.389644596373335E+06,
2461253.500000000, A.D. 2026-Aug-01 00:00:00.0000, 4.998629538246142E+08, -1.953872941260059E+08, -9.379303549310893E+06,
2461260.500000000, A.D. 2026-Aug-08 00:00:00.0000, 5.026103326409371E+08, -1.870176661022808E+08, -9.366019105432585E+06,
2461267.500000000, A.D. 2026-Aug-15 00:00:00.0000, 5.051996086158268E+08, -1.785892263515949E+08, -9.349788674065873E+06,
2461274.500000000, A.D. 2026-Aug-22 00:00:00.0000, 5.076295748888566E+08, -1.701044897014142E+08, -9.330610312424958E+06,
2461281.500000000, A.D. 2026-Aug-29 00:00:00.0000, 5.098990483159544E+08, -1.615659924001437E+08, -9.308482468238041E+06,
$$EOE